STARLINK-5300           
1 55676U 23021BA  26068.60182071  .00006866  00000+0  58231-3 0  9991
2 55676  70.0014 144.7179 0003170 271.1144  88.9652 14.98354952169764
SATELIOT_3              
1 60552U 24149CN  26068.79802274  .00002865  00000+0  25003-3 0  9992
2 60552  97.6866 147.0596 0005831  63.3535 296.8284 14.97601684 85206
